{
  "type": "FeatureCollection",
  "name": "border_dmtrvgrd",
  "features": [
    {
      "type": "Feature",
      "properties": {
        "full_id": "r2621608",
        "osm_id": "2621608",
        "osm_type": "relation",
        "boundary": "administrative",
        "source:url": "http://www.dumadgrad.ru/files/o_gorode/genplan/prilozh/1.rar",
        "old_name": "Мелекес",
        "wikipedia": "ru:Городской округ Димитровград",
        "wikidata": "Q4145659",
        "website": null,
        "type": "boundary",
        "population": null,
        "official_status": "ru:городской округ",
        "name:tt": null,
        "name:ru": "городской округ Димитровград",
        "name:ja": "ディミトロフグラード管区",
        "name:en": null,
        "name": "городской округ Димитровград",
        "admin_level": "6",
        "addr:region": null,
        "addr:country": null
      },
      "geometry": {
        "type": "MultiPolygon",
        "coordinates": [
          [
            [
              [
                49.6325311,
                54.2332867
              ],
              [
                49.6348476,
                54.2331485
              ],
              [
                49.6349661,
                54.2325716
              ],
              [
                49.6347079,
                54.2321409
              ],
              [
                49.6344978,
                54.2305958
              ],
              [
                49.6342061,
                54.2295706
              ],
              [
                49.6339622,
                54.228517
              ],
              [
                49.634062,
                54.2284728
              ],
              [
                49.6340654,
                54.2284168
              ],
              [
                49.6340055,
                54.2283743
              ],
              [
                49.633917,
                54.2283495
              ],
              [
                49.6341366,
                54.2283463
              ],
              [
                49.6349832,
                54.2283057
              ],
              [
                49.6354662,
                54.2287586
              ],
              [
                49.6355142,
                54.2291889
              ],
              [
                49.6344145,
                54.2292464
              ],
              [
                49.6344443,
                54.2295561
              ],
              [
                49.6356891,
                54.2295107
              ],
              [
                49.6356746,
                54.229217
              ],
              [
                49.6362253,
                54.2292108
              ],
              [
                49.6361937,
                54.2286914
              ],
              [
                49.6355296,
                54.2286882
              ],
              [
                49.6353044,
                54.2282964
              ],
              [
                49.6374114,
                54.2282439
              ],
              [
                49.6374166,
                54.2282109
              ],
              [
                49.6375453,
                54.2273893
              ],
              [
                49.6372985,
                54.2272074
              ],
              [
                49.6373736,
                54.2264799
              ],
              [
                49.6379676,
                54.2265079
              ],
              [
                49.6383869,
                54.2265845
              ],
              [
                49.6385496,
                54.226435
              ],
              [
                49.6386391,
                54.2261004
              ],
              [
                49.6388826,
                54.2257207
              ],
              [
                49.6388089,
                54.2255522
              ],
              [
                49.6394933,
                54.2247829
              ],
              [
                49.6385744,
                54.2243273
              ],
              [
                49.6411298,
                54.2233797
              ],
              [
                49.6422688,
                54.2230468
              ],
              [
                49.6435684,
                54.2226968
              ],
              [
                49.644265,
                54.2225958
              ],
              [
                49.6449262,
                54.2225632
              ],
              [
                49.6456328,
                54.2225562
              ],
              [
                49.6463658,
                54.2225465
              ],
              [
                49.6469988,
                54.2224804
              ],
              [
                49.6516018,
                54.2219021
              ],
              [
                49.6548155,
                54.2211207
              ],
              [
                49.6552125,
                54.2219487
              ],
              [
                49.6582917,
                54.2229022
              ],
              [
                49.662948,
                54.2224944
              ],
              [
                49.6681992,
                54.2255271
              ],
              [
                49.6759875,
                54.2211883
              ],
              [
                49.676736,
                54.2207713
              ],
              [
                49.6769297,
                54.2206634
              ],
              [
                49.6737961,
                54.2191241
              ],
              [
                49.6769711,
                54.2171901
              ],
              [
                49.6758522,
                54.2170761
              ],
              [
                49.6743302,
                54.216844
              ],
              [
                49.6722011,
                54.2161969
              ],
              [
                49.669361,
                54.2141822
              ],
              [
                49.6678098,
                54.2130194
              ],
              [
                49.66623,
                54.2114619
              ],
              [
                49.6651359,
                54.2096641
              ],
              [
                49.6647286,
                54.2063799
              ],
              [
                49.6649011,
                54.2038977
              ],
              [
                49.6646974,
                54.20143
              ],
              [
                49.6643483,
                54.1986897
              ],
              [
                49.6643192,
                54.1960891
              ],
              [
                49.6641737,
                54.1941486
              ],
              [
                49.6636645,
                54.1909567
              ],
              [
                49.66365,
                54.1886244
              ],
              [
                49.6650029,
                54.186973
              ],
              [
                49.6648709,
                54.1849595
              ],
              [
                49.664574,
                54.1841158
              ],
              [
                49.6519915,
                54.1815339
              ],
              [
                49.6277031,
                54.1871825
              ],
              [
                49.6241258,
                54.1992424
              ],
              [
                49.6087742,
                54.2012912
              ],
              [
                49.5825177,
                54.1941263
              ],
              [
                49.5714482,
                54.1883877
              ],
              [
                49.5656104,
                54.1861782
              ],
              [
                49.5565941,
                54.1837483
              ],
              [
                49.5418329,
                54.1780209
              ],
              [
                49.54157,
                54.1779189
              ],
              [
                49.5388057,
                54.1768462
              ],
              [
                49.5381485,
                54.1748265
              ],
              [
                49.5380282,
                54.1744568
              ],
              [
                49.5370531,
                54.1739152
              ],
              [
                49.5314741,
                54.1700089
              ],
              [
                49.5187497,
                54.1675595
              ],
              [
                49.509201,
                54.1684765
              ],
              [
                49.5056391,
                54.1664791
              ],
              [
                49.504652,
                54.1652606
              ],
              [
                49.5007682,
                54.1645069
              ],
              [
                49.4994378,
                54.1637657
              ],
              [
                49.4898462,
                54.1619817
              ],
              [
                49.4856405,
                54.1621576
              ],
              [
                49.4821771,
                54.1611611
              ],
              [
                49.4796042,
                54.1611776
              ],
              [
                49.47739,
                54.1606311
              ],
              [
                49.4766068,
                54.1596448
              ],
              [
                49.4766927,
                54.1582565
              ],
              [
                49.4752121,
                54.1582125
              ],
              [
                49.4589042,
                54.148587
              ],
              [
                49.4420926,
                54.1528645
              ],
              [
                49.4446469,
                54.177365
              ],
              [
                49.4481941,
                54.1908841
              ],
              [
                49.4506428,
                54.1909488
              ],
              [
                49.4556556,
                54.1905444
              ],
              [
                49.4574735,
                54.1998394
              ],
              [
                49.4737109,
                54.1988325
              ],
              [
                49.4755418,
                54.2084298
              ],
              [
                49.4917481,
                54.2074149
              ],
              [
                49.4927463,
                54.2125925
              ],
              [
                49.4928247,
                54.2129995
              ],
              [
                49.4935676,
                54.2168525
              ],
              [
                49.5113937,
                54.2156733
              ],
              [
                49.5132792,
                54.2220049
              ],
              [
                49.5120849,
                54.2228936
              ],
              [
                49.5105166,
                54.2240607
              ],
              [
                49.5112625,
                54.225387
              ],
              [
                49.5127231,
                54.2258594
              ],
              [
                49.510641,
                54.2274217
              ],
              [
                49.5092114,
                54.2272946
              ],
              [
                49.5080305,
                54.2286934
              ],
              [
                49.5077717,
                54.2288243
              ],
              [
                49.5059483,
                54.229747
              ],
              [
                49.5020805,
                54.2302099
              ],
              [
                49.5032657,
                54.2366714
              ],
              [
                49.5084183,
                54.2362746
              ],
              [
                49.5093541,
                54.2362025
              ],
              [
                49.5116103,
                54.2360718
              ],
              [
                49.5119013,
                54.2360549
              ],
              [
                49.5170607,
                54.2357561
              ],
              [
                49.5173376,
                54.23574
              ],
              [
                49.51736,
                54.2357387
              ],
              [
                49.5185104,
                54.2356721
              ],
              [
                49.5214718,
                54.2355006
              ],
              [
                49.522419,
                54.2354457
              ],
              [
                49.522538,
                54.2365572
              ],
              [
                49.5234449,
                54.2450251
              ],
              [
                49.5473319,
                54.2436351
              ],
              [
                49.5484807,
                54.2511554
              ],
              [
                49.5487217,
                54.2527329
              ],
              [
                49.5492581,
                54.2562439
              ],
              [
                49.5474385,
                54.2568502
              ],
              [
                49.5457686,
                54.2577208
              ],
              [
                49.544198,
                54.2590491
              ],
              [
                49.5438053,
                54.2598665
              ],
              [
                49.5432638,
                54.2605499
              ],
              [
                49.5431142,
                54.261403
              ],
              [
                49.5433168,
                54.2623
              ],
              [
                49.5436944,
                54.2635325
              ],
              [
                49.5447416,
                54.2645716
              ],
              [
                49.5462228,
                54.2658185
              ],
              [
                49.5465861,
                54.2662591
              ],
              [
                49.5468685,
                54.2666016
              ],
              [
                49.5474357,
                54.2676644
              ],
              [
                49.5476928,
                54.2689013
              ],
              [
                49.5474615,
                54.2701015
              ],
              [
                49.5466988,
                54.2716291
              ],
              [
                49.5455477,
                54.2725989
              ],
              [
                49.543424,
                54.2738544
              ],
              [
                49.5405767,
                54.2752148
              ],
              [
                49.5391829,
                54.2760252
              ],
              [
                49.5368246,
                54.2796574
              ],
              [
                49.534076,
                54.2813424
              ],
              [
                49.5308663,
                54.2827144
              ],
              [
                49.5293203,
                54.2832061
              ],
              [
                49.5264195,
                54.2839046
              ],
              [
                49.5290546,
                54.2902456
              ],
              [
                49.5385917,
                54.2976792
              ],
              [
                49.5414949,
                54.2960851
              ],
              [
                49.5450153,
                54.294152
              ],
              [
                49.5571799,
                54.3004311
              ],
              [
                49.5839799,
                54.2989423
              ],
              [
                49.5811132,
                54.2838711
              ],
              [
                49.5790796,
                54.2731762
              ],
              [
                49.5809736,
                54.2725621
              ],
              [
                49.5851197,
                54.2702252
              ],
              [
                49.5859644,
                54.2695211
              ],
              [
                49.589266,
                54.2647121
              ],
              [
                49.5907254,
                54.2601816
              ],
              [
                49.6227429,
                54.2580894
              ],
              [
                49.6237537,
                54.2580545
              ],
              [
                49.6230947,
                54.2516944
              ],
              [
                49.6220203,
                54.2448059
              ],
              [
                49.6218,
                54.2447736
              ],
              [
                49.6210569,
                54.2379919
              ],
              [
                49.6219031,
                54.2379483
              ],
              [
                49.6219867,
                54.23771
              ],
              [
                49.6218791,
                54.2373372
              ],
              [
                49.6209849,
                54.2373346
              ],
              [
                49.6208082,
                54.2357216
              ],
              [
                49.6208358,
                54.2352859
              ],
              [
                49.6209184,
                54.2349308
              ],
              [
                49.6210287,
                54.2346888
              ],
              [
                49.6211113,
                54.2342531
              ],
              [
                49.6211473,
                54.233966
              ],
              [
                49.6294259,
                54.233472
              ],
              [
                49.6325311,
                54.2332867
              ]
            ]
          ],
          [
            [
              [
                49.6952413,
                54.2390524
              ],
              [
                49.6957453,
                54.2404955
              ],
              [
                49.6944745,
                54.2406279
              ],
              [
                49.692066,
                54.2407564
              ],
              [
                49.6922814,
                54.2412383
              ],
              [
                49.6887522,
                54.2414599
              ],
              [
                49.6887095,
                54.2404167
              ],
              [
                49.6880071,
                54.2374517
              ],
              [
                49.6882115,
                54.2372071
              ],
              [
                49.6889839,
                54.2367055
              ],
              [
                49.6893326,
                54.2360095
              ],
              [
                49.6891502,
                54.2353856
              ],
              [
                49.689161,
                54.2352288
              ],
              [
                49.6904752,
                54.2351347
              ],
              [
                49.6909527,
                54.2358402
              ],
              [
                49.6918915,
                54.2358308
              ],
              [
                49.6929319,
                54.2363043
              ],
              [
                49.6947936,
                54.23674
              ],
              [
                49.6953944,
                54.2370159
              ],
              [
                49.6955232,
                54.2378561
              ],
              [
                49.6950135,
                54.2386461
              ],
              [
                49.6952413,
                54.2390524
              ]
            ]
          ]
        ]
      }
    }
  ]
}

